{"type":"FeatureCollection","features":[{"type":"Feature","id":26,"geometry":{"type":"Point","coordinates":[30.53440215749249,50.496225735906087]},"properties":{"objectid":26,"name":"Чорторий","worktime":"Цілодобово (крім комендантської години)","district":"Деснянський","point_x":30.536220760000003,"point_y":50.496416879999998,"waterobject":"р. Дніпро","beachstatus":1,"shower":0,"safeguard":0,"drinkingfountain":0,"flatenter":1,"busstop":1,"sport":1,"child":1,"dresing":1,"shadowcanopies":1,"specialparking":0,"notresholdenter":1,"availability":0,"rampant":0,"lift":0,"audio":0,"haptic":0,"hpticview":0,"noview":0,"visualelement":0,"markedcolor":0,"lightsignal":0,"infoboard":0,"infopointer":0,"noacustic":0,"liftinternal":0,"stair":0,"stairelevator":0,"mobileelevator":0,"elevatorplatform":0,"escalator":0,"rampantinternal":0,"nofloor":0,"wc":0,"wifi":0,"childtable":0,"childroom":0,"siglang":0,"dispersonsup":0,"last_editeddate":1750395088000,"tel":"044 541 18 11, 044 517 62 37","web":"pleso.kyiv.ua","globalid":"{F917E77B-4CBE-4215-AF96-54E0621603A1}"}},{"type":"Feature","id":27,"geometry":{"type":"Point","coordinates":[30.580213171189229,50.486257101979028]},"properties":{"objectid":27,"name":"Райдуга","worktime":"Цілодобово (крім комендантської години)","district":"Дніпровський","point_x":30.581957920000001,"point_y":50.486417580000001,"waterobject":"озеро Райдуга","beachstatus":1,"shower":1,"safeguard":1,"drinkingfountain":1,"flatenter":1,"busstop":1,"sport":0,"child":1,"dresing":1,"shadowcanopies":1,"specialparking":0,"notresholdenter":1,"availability":1,"rampant":0,"lift":0,"audio":0,"haptic":0,"hpticview":0,"noview":0,"visualelement":0,"markedcolor":0,"lightsignal":0,"infoboard":0,"infopointer":0,"noacustic":0,"liftinternal":0,"stair":0,"stairelevator":0,"mobileelevator":0,"elevatorplatform":0,"escalator":0,"rampantinternal":0,"nofloor":0,"wc":1,"wifi":0,"childtable":0,"childroom":0,"siglang":0,"dispersonsup":0,"last_editeddate":1750396183000,"tel":"044 541 18 11, 044 517 62 37","web":"pleso.kyiv.ua","globalid":"{DA160D05-B1FE-4442-A178-ECE47E4D9ABB}"}},{"type":"Feature","id":22,"geometry":{"type":"Point","coordinates":[30.518683550410973,50.508959194850632]},"properties":{"objectid":22,"name":"Острів Оболонський","worktime":"Цілодобово (крім комендантської години)","district":"Оболонський","point_x":30.521876150000001,"point_y":50.51245539,"waterobject":"затока Наталка та р. Дніпро","beachstatus":1,"shower":0,"safeguard":1,"drinkingfountain":1,"flatenter":1,"busstop":0,"sport":1,"child":1,"dresing":1,"shadowcanopies":0,"specialparking":0,"notresholdenter":1,"availability":1,"rampant":0,"lift":0,"audio":0,"haptic":0,"hpticview":0,"noview":0,"visualelement":0,"markedcolor":0,"lightsignal":0,"infoboard":0,"infopointer":0,"noacustic":0,"liftinternal":0,"stair":0,"stairelevator":0,"mobileelevator":0,"elevatorplatform":0,"escalator":0,"rampantinternal":0,"nofloor":0,"wc":1,"wifi":0,"childtable":0,"childroom":0,"siglang":0,"dispersonsup":0,"last_editeddate":1750395088000,"tel":"044 541 18 11, 044 517 62 37","web":"pleso.kyiv.ua","globalid":"{7E2FF3EE-28D0-4BBB-961C-68760356F913}"}},{"type":"Feature","id":24,"geometry":{"type":"Point","coordinates":[30.571423131277431,50.437932834821595]},"properties":{"objectid":24,"name":"Передмістна Слобідка","worktime":"Цілодобово (крім комендантської години)","district":"Дніпровський","point_x":30.57322388,"point_y":50.438344260000001,"waterobject":"р. Дніпро, острів Венеціанський","beachstatus":1,"shower":1,"safeguard":1,"drinkingfountain":1,"flatenter":1,"busstop":0,"sport":0,"child":0,"dresing":1,"shadowcanopies":1,"specialparking":0,"notresholdenter":0,"availability":1,"rampant":0,"lift":0,"audio":0,"haptic":0,"hpticview":0,"noview":0,"visualelement":0,"markedcolor":0,"lightsignal":0,"infoboard":0,"infopointer":0,"noacustic":0,"liftinternal":0,"stair":0,"stairelevator":0,"mobileelevator":0,"elevatorplatform":0,"escalator":0,"rampantinternal":0,"nofloor":0,"wc":1,"wifi":0,"childtable":0,"childroom":0,"siglang":0,"dispersonsup":0,"last_editeddate":1750395088000,"tel":"044 541 18 11, 044 517 62 37","web":"pleso.kyiv.ua","globalid":"{C352CED4-1DF9-435C-8B35-011493345211}"}},{"type":"Feature","id":23,"geometry":{"type":"Point","coordinates":[30.344976218739138,50.540014197679376]},"properties":{"objectid":23,"name":"Пуща-Водиця","worktime":"Цілодобово (крім комендантської години)","district":"Оболонський","point_x":30.34721064,"point_y":50.540183380000002,"waterobject":"ставок Горащиха на р. Котурка у Пущі-Водиці (8 лінія)","beachstatus":1,"shower":0,"safeguard":1,"drinkingfountain":0,"flatenter":1,"busstop":1,"sport":1,"child":0,"dresing":1,"shadowcanopies":1,"specialparking":0,"notresholdenter":0,"availability":1,"rampant":0,"lift":0,"audio":0,"haptic":0,"hpticview":0,"noview":0,"visualelement":0,"markedcolor":0,"lightsignal":0,"infoboard":0,"infopointer":0,"noacustic":0,"liftinternal":0,"stair":0,"stairelevator":0,"mobileelevator":0,"elevatorplatform":0,"escalator":0,"rampantinternal":0,"nofloor":0,"wc":1,"wifi":0,"childtable":0,"childroom":0,"siglang":0,"dispersonsup":0,"last_editeddate":1750396183000,"tel":"044 541 18 11, 044 517 62 37","web":"pleso.kyiv.ua","globalid":"{BEF16D50-C18D-4D61-84D5-C95C030A1451}"}},{"type":"Feature","id":25,"geometry":{"type":"Point","coordinates":[30.581090675772284,50.430526390500859]},"properties":{"objectid":25,"name":"Золотий","worktime":"Цілодобово (крім комендантської години)","district":"Дніпровський","point_x":30.582775139999999,"point_y":50.430601539999998,"waterobject":"р. Дніпро, острів Венеціанський","beachstatus":1,"shower":1,"safeguard":0,"drinkingfountain":1,"flatenter":1,"busstop":0,"sport":1,"child":1,"dresing":1,"shadowcanopies":0,"specialparking":0,"notresholdenter":0,"availability":1,"rampant":0,"lift":0,"audio":0,"haptic":0,"hpticview":0,"noview":0,"visualelement":0,"markedcolor":0,"lightsignal":0,"infoboard":0,"infopointer":0,"noacustic":0,"liftinternal":0,"stair":0,"stairelevator":0,"mobileelevator":0,"elevatorplatform":0,"escalator":0,"rampantinternal":0,"nofloor":0,"wc":1,"wifi":0,"childtable":0,"childroom":0,"siglang":0,"dispersonsup":0,"last_editeddate":1750395088000,"tel":"044 541 18 11, 044 517 62 37","web":"pleso.kyiv.ua","globalid":"{F0186337-241C-4575-83D6-1BFE77E7334A}"}},{"type":"Feature","id":29,"geometry":{"type":"Point","coordinates":[30.581886671179294,50.455061960841341]},"properties":{"objectid":29,"name":"Веселка","worktime":"Цілодобово (крім комендантської години)","district":"Дніпровський","point_x":30.584336049999997,"point_y":50.455075309999998,"waterobject":"Русанівська протока","beachstatus":1,"shower":1,"safeguard":1,"drinkingfountain":1,"flatenter":1,"busstop":0,"sport":0,"child":0,"dresing":1,"shadowcanopies":1,"specialparking":0,"notresholdenter":1,"availability":1,"rampant":0,"lift":0,"audio":0,"haptic":0,"hpticview":0,"noview":0,"visualelement":0,"markedcolor":0,"lightsignal":0,"infoboard":0,"infopointer":0,"noacustic":0,"liftinternal":0,"stair":0,"stairelevator":0,"mobileelevator":0,"elevatorplatform":0,"escalator":0,"rampantinternal":0,"nofloor":0,"wc":1,"wifi":0,"childtable":0,"childroom":0,"siglang":0,"dispersonsup":0,"last_editeddate":1750396183000,"tel":"044 541 18 11, 044 517 62 37","web":"pleso.kyiv.ua","globalid":"{BE1F0D9A-EE32-4A77-8C64-E873873E333A}"}},{"type":"Feature","id":28,"geometry":{"type":"Point","coordinates":[30.532967784479027,50.458810820469211]},"properties":{"objectid":28,"name":"Центральний","worktime":"Цілодобово (крім комендантської години)","district":"Дніпровський","point_x":30.535475769999998,"point_y":50.458475249999999,"waterobject":"річка Дніпро","beachstatus":1,"shower":1,"safeguard":1,"drinkingfountain":1,"flatenter":1,"busstop":0,"sport":1,"child":0,"dresing":1,"shadowcanopies":0,"specialparking":0,"notresholdenter":1,"availability":1,"rampant":0,"lift":0,"audio":0,"haptic":0,"hpticview":0,"noview":0,"visualelement":0,"markedcolor":0,"lightsignal":0,"infoboard":0,"infopointer":0,"noacustic":0,"liftinternal":0,"stair":0,"stairelevator":0,"mobileelevator":0,"elevatorplatform":0,"escalator":0,"rampantinternal":0,"nofloor":0,"wc":1,"wifi":0,"childtable":0,"childroom":0,"siglang":0,"dispersonsup":0,"last_editeddate":1750395088000,"tel":"044 541 18 11, 044 517 62 37","web":"pleso.kyiv.ua","globalid":"{24AA0B59-0A25-41A9-8D8C-8C8AB769808A}"}},{"type":"Feature","id":30,"geometry":{"type":"Point","coordinates":[30.514292017259422,50.491062263873026]},"properties":{"objectid":30,"name":"Вербний","worktime":null,"district":"Голосіївський","point_x":30.514317859999998,"point_y":50.491063240000003,"waterobject":"озеро Вербне","beachstatus":1,"shower":1,"safeguard":1,"drinkingfountain":1,"flatenter":1,"busstop":1,"sport":1,"child":1,"dresing":1,"shadowcanopies":1,"specialparking":0,"notresholdenter":0,"availability":1,"rampant":0,"lift":0,"audio":0,"haptic":0,"hpticview":0,"noview":0,"visualelement":0,"markedcolor":0,"lightsignal":0,"infoboard":0,"infopointer":0,"noacustic":0,"liftinternal":0,"stair":0,"stairelevator":0,"mobileelevator":0,"elevatorplatform":0,"escalator":0,"rampantinternal":0,"nofloor":0,"wc":1,"wifi":0,"childtable":0,"childroom":0,"siglang":0,"dispersonsup":0,"last_editeddate":null,"tel":null,"web":null,"globalid":"{774BED46-CF9C-4897-A97E-FE7DAB6973E6}"}},{"type":"Feature","id":430,"geometry":{"type":"Point","coordinates":[30.603756797468723,50.427382547598128]},"properties":{"objectid":430,"name":"Тельбін","worktime":null,"district":"Голосіївський","point_x":30.603782649999999,"point_y":50.427383500000005,"waterobject":"озеро Тельбін","beachstatus":1,"shower":1,"safeguard":1,"drinkingfountain":1,"flatenter":1,"busstop":1,"sport":1,"child":0,"dresing":1,"shadowcanopies":1,"specialparking":0,"notresholdenter":0,"availability":0,"rampant":0,"lift":0,"audio":0,"haptic":0,"hpticview":0,"noview":0,"visualelement":0,"markedcolor":0,"lightsignal":0,"infoboard":0,"infopointer":0,"noacustic":0,"liftinternal":0,"stair":0,"stairelevator":0,"mobileelevator":0,"elevatorplatform":0,"escalator":0,"rampantinternal":0,"nofloor":0,"wc":1,"wifi":0,"childtable":0,"childroom":0,"siglang":0,"dispersonsup":0,"last_editeddate":null,"tel":null,"web":null,"globalid":"{15E77E07-6717-45E5-96AF-E79C2C8B62C3}"}},{"type":"Feature","id":830,"geometry":{"type":"Point","coordinates":[30.550877297615891,50.37023871225886]},"properties":{"objectid":830,"name":"Галерний","worktime":null,"district":"Голосіївський","point_x":30.550903119999997,"point_y":50.370239649999995,"waterobject":"затока Галерна","beachstatus":1,"shower":1,"safeguard":1,"drinkingfountain":1,"flatenter":1,"busstop":1,"sport":1,"child":1,"dresing":1,"shadowcanopies":0,"specialparking":0,"notresholdenter":0,"availability":1,"rampant":0,"lift":0,"audio":0,"haptic":0,"hpticview":0,"noview":0,"visualelement":0,"markedcolor":0,"lightsignal":0,"infoboard":0,"infopointer":0,"noacustic":0,"liftinternal":0,"stair":0,"stairelevator":0,"mobileelevator":0,"elevatorplatform":0,"escalator":0,"rampantinternal":0,"nofloor":0,"wc":1,"wifi":0,"childtable":0,"childroom":0,"siglang":0,"dispersonsup":0,"last_editeddate":null,"tel":null,"web":null,"globalid":"{37414027-755F-4B5A-A22B-1FD3ED99FC87}"}},{"type":"Feature","id":16,"geometry":{"type":"Point","coordinates":[30.574993184267328,50.449335432067308]},"properties":{"objectid":16,"name":"Венеція","worktime":"Цілодобово (крім комендантської години)","district":"Дніпровський","point_x":30.576652749999997,"point_y":50.44949106,"waterobject":"Венеціанська протока, острів Долобецький","beachstatus":1,"shower":1,"safeguard":1,"drinkingfountain":1,"flatenter":1,"busstop":1,"sport":1,"child":1,"dresing":1,"shadowcanopies":0,"specialparking":0,"notresholdenter":1,"availability":1,"rampant":0,"lift":0,"audio":0,"haptic":0,"hpticview":0,"noview":0,"visualelement":0,"markedcolor":0,"lightsignal":0,"infoboard":0,"infopointer":0,"noacustic":0,"liftinternal":0,"stair":0,"stairelevator":0,"mobileelevator":0,"elevatorplatform":0,"escalator":0,"rampantinternal":0,"nofloor":0,"wc":1,"wifi":0,"childtable":0,"childroom":0,"siglang":0,"dispersonsup":0,"last_editeddate":1750396311000,"tel":"044 541 18 11, 044 517 62 37","web":"https://pleso.kyiv.ua/","globalid":"{F143A769-A6DB-4D3D-A18F-6667A620A8DA}"}},{"type":"Feature","id":18,"geometry":{"type":"Point","coordinates":[30.571912324517683,50.447362273036475]},"properties":{"objectid":18,"name":"Дитячий","worktime":"Цілодобово (крім комендантської години)","district":"Дніпровський","point_x":30.573698439999998,"point_y":50.447306189999999,"waterobject":"Венеціанська протока, острів Венеціанський","beachstatus":1,"shower":1,"safeguard":1,"drinkingfountain":1,"flatenter":1,"busstop":1,"sport":0,"child":1,"dresing":1,"shadowcanopies":1,"specialparking":0,"notresholdenter":1,"availability":1,"rampant":1,"lift":0,"audio":0,"haptic":0,"hpticview":0,"noview":0,"visualelement":0,"markedcolor":0,"lightsignal":0,"infoboard":0,"infopointer":0,"noacustic":0,"liftinternal":0,"stair":0,"stairelevator":0,"mobileelevator":0,"elevatorplatform":0,"escalator":0,"rampantinternal":0,"nofloor":0,"wc":1,"wifi":0,"childtable":0,"childroom":0,"siglang":0,"dispersonsup":0,"last_editeddate":1750395088000,"tel":"044 541 18 11, 044 517 62 37","web":"pleso.kyiv.ua","globalid":"{4C4FCAD2-2BD8-4FD5-A5F8-61A38650E51A}"}},{"type":"Feature","id":20,"geometry":{"type":"Point","coordinates":[30.566739419429116,50.505398240941567]},"properties":{"objectid":20,"name":"Троєщина","worktime":"Цілодобово (крім комендантської години)","district":"Деснянський","point_x":30.568849889999999,"point_y":50.505037350000002,"waterobject":"затока р. Десенка","beachstatus":1,"shower":1,"safeguard":1,"drinkingfountain":1,"flatenter":1,"busstop":0,"sport":1,"child":1,"dresing":1,"shadowcanopies":1,"specialparking":0,"notresholdenter":1,"availability":1,"rampant":0,"lift":0,"audio":0,"haptic":0,"hpticview":0,"noview":0,"visualelement":0,"markedcolor":0,"lightsignal":0,"infoboard":0,"infopointer":0,"noacustic":0,"liftinternal":0,"stair":0,"stairelevator":0,"mobileelevator":0,"elevatorplatform":0,"escalator":0,"rampantinternal":0,"nofloor":0,"wc":1,"wifi":0,"childtable":0,"childroom":0,"siglang":0,"dispersonsup":0,"last_editeddate":1750395088000,"tel":"044 541 18 11, 044 517 62 37","web":"pleso.kyiv.ua","globalid":"{90CE4146-EC65-4237-89FE-682D11E35D4B}"}},{"type":"Feature","id":19,"geometry":{"type":"Point","coordinates":[30.570399711311151,50.45104468412849]},"properties":{"objectid":19,"name":"Молодіжний","worktime":"Цілодобово (крім комендантської години)","district":"Дніпровський","point_x":30.57343483,"point_y":50.451755080000005,"waterobject":"р. Десенка, острів Долобецький","beachstatus":1,"shower":1,"safeguard":1,"drinkingfountain":1,"flatenter":1,"busstop":1,"sport":1,"child":0,"dresing":1,"shadowcanopies":0,"specialparking":0,"notresholdenter":1,"availability":1,"rampant":0,"lift":0,"audio":0,"haptic":0,"hpticview":0,"noview":0,"visualelement":0,"markedcolor":0,"lightsignal":0,"infoboard":0,"infopointer":0,"noacustic":0,"liftinternal":0,"stair":0,"stairelevator":0,"mobileelevator":0,"elevatorplatform":0,"escalator":0,"rampantinternal":0,"nofloor":0,"wc":1,"wifi":0,"childtable":0,"childroom":0,"siglang":0,"dispersonsup":0,"last_editeddate":1750395088000,"tel":"044 541 18 11, 044 517 62 37","web":"pleso.kyiv.ua","globalid":"{65C9B2A3-8DC3-43E9-9B88-EAD20F25B806}"}}]}